SL-14 R/B               
1 21423U 91042B   26006.22764146  .00000597  00000+0  72572-4 0  9991
2 21423  82.4937 278.7628 0018592  86.4830 273.8510 14.81766787843827
ERS-1                   
1 21574U 91050A   26006.27545230  .00000481  00000+0  16842-3 0  9992
2 21574  98.7895  22.9432 0032446  29.1631 331.1359 14.39389179806755
ARIANE 40 R/B           
1 21610U 91050F   26006.12797643  .00000474  00000+0  15453-3 0  9993
2 21610  98.2128  60.6743 0002022 258.2015 101.8949 14.42837833809975
INTERCOSMOS 25          
1 21819U 91086A   26006.23870814  .00001672  00000+0  33295-3 0  9992
2 21819  82.6082 347.7551 1485923 251.5546  91.8768 12.11830165489122
SL-8 R/B                
1 21876U 92008B   26006.34198192  .00000125  00000+0  11275-3 0  9990
2 21876  82.9285 314.1482 0033766 310.5208 167.1998 13.75964841700845
SL-8 R/B                
1 21938U 92020B   26006.30421703  .00000153  00000+0  14259-3 0  9992
2 21938  82.9292 200.0757 0030127 111.1412  61.4053 13.75534842692550
USA 81                  
1 21949U 92023A   26006.20541006  .00000272  00000+0  93333-4 0  9998
2 21949  85.0092 167.4663 0001257 113.3994 246.7331 14.32338784 85843
COSMOS 2219             
1 22219U 92076A   26006.34182334  .00000244  00000+0  15296-3 0  9997
2 22219  71.0608 148.4043 0020205 292.8776  67.0214 14.14078667709565
SL-16 R/B               
1 22220U 92076B   26006.29566101  .00000051  00000+0  49272-4 0  9999
2 22220  71.0012 319.8046 0013580 200.3399 269.2702 14.16845528712995
COSMOS 2221             
1 22236U 92080A   26006.30138122  .00002498  00000+0  22058-3 0  9990
2 22236  82.5053 338.8131 0015853  47.0834 313.1715 14.95889110771467
SL-16 R/B               
1 22285U 92093B   26006.33754495 -.00000075  00000+0 -14038-4 0  9999
2 22285  71.0211 135.1605 0003200   8.5095 351.6082 14.15433768704330
COSMOS 2228             
1 22286U 92094A   26006.29162709  .00002955  00000+0  25455-3 0  9998
2 22286  82.5197 297.0428 0018759 147.0609 213.1786 14.96873372766729
