CCSDS_OMM_VERS = 2.0
CREATION_DATE  = 
ORIGINATOR     = 

OBJECT_NAME    = SL-14 R/B
OBJECT_ID      = 1991-042B
CENTER_NAME    = EARTH
REF_FRAME      = TEME
TIME_SYSTEM    = UTC
MEAN_ELEMENT_THEORY = SGP/SGP4

EPOCH          = 2026-01-06T05:27:48.222144
MEAN_MOTION    = 14.81766787
ECCENTRICITY   = .00185923
INCLINATION    = 82.4937
RA_OF_ASC_NODE = 278.7628
ARG_OF_PERICENTER = 86.4830
MEAN_ANOMALY   = 273.8510

EPHEMERIS_TYPE = 0
CLASSIFICATION_TYPE = U
NORAD_CAT_ID   = 21423
ELEMENT_SET_NO = 999
REV_AT_EPOCH   = 84382
BSTAR          = .7257159E-4
MEAN_MOTION_DOT = .597E-5
MEAN_MOTION_DDOT = 0

CCSDS_OMM_VERS = 2.0
CREATION_DATE  = 
ORIGINATOR     = 

OBJECT_NAME    = ERS-1
OBJECT_ID      = 1991-050A
CENTER_NAME    = EARTH
REF_FRAME      = TEME
TIME_SYSTEM    = UTC
MEAN_ELEMENT_THEORY = SGP/SGP4

EPOCH          = 2026-01-06T06:36:39.078720
MEAN_MOTION    = 14.39389179
ECCENTRICITY   = .00324465
INCLINATION    = 98.7895
RA_OF_ASC_NODE = 22.9432
ARG_OF_PERICENTER = 29.1631
MEAN_ANOMALY   = 331.1359

EPHEMERIS_TYPE = 0
CLASSIFICATION_TYPE = U
NORAD_CAT_ID   = 21574
ELEMENT_SET_NO = 999
REV_AT_EPOCH   = 80675
BSTAR          = .16842026E-3
MEAN_MOTION_DOT = .481E-5
MEAN_MOTION_DDOT = 0

CCSDS_OMM_VERS = 2.0
CREATION_DATE  = 
ORIGINATOR     = 

OBJECT_NAME    = ARIANE 40 R/B
OBJECT_ID      = 1991-050F
CENTER_NAME    = EARTH
REF_FRAME      = TEME
TIME_SYSTEM    = UTC
MEAN_ELEMENT_THEORY = SGP/SGP4

EPOCH          = 2026-01-06T03:04:17.163552
MEAN_MOTION    = 14.42837833
ECCENTRICITY   = .00020222
INCLINATION    = 98.2128
RA_OF_ASC_NODE = 60.6743
ARG_OF_PERICENTER = 258.2015
MEAN_ANOMALY   = 101.8949

EPHEMERIS_TYPE = 0
CLASSIFICATION_TYPE = U
NORAD_CAT_ID   = 21610
ELEMENT_SET_NO = 999
REV_AT_EPOCH   = 80997
BSTAR          = .15452861E-3
MEAN_MOTION_DOT = .474E-5
MEAN_MOTION_DDOT = 0

CCSDS_OMM_VERS = 2.0
CREATION_DATE  = 
ORIGINATOR     = 

OBJECT_NAME    = INTERCOSMOS 25
OBJECT_ID      = 1991-086A
CENTER_NAME    = EARTH
REF_FRAME      = TEME
TIME_SYSTEM    = UTC
MEAN_ELEMENT_THEORY = SGP/SGP4

EPOCH          = 2026-01-06T05:43:44.383296
MEAN_MOTION    = 12.11830165
ECCENTRICITY   = .14859238
INCLINATION    = 82.6082
RA_OF_ASC_NODE = 347.7551
ARG_OF_PERICENTER = 251.5546
MEAN_ANOMALY   = 91.8768

EPHEMERIS_TYPE = 0
CLASSIFICATION_TYPE = U
NORAD_CAT_ID   = 21819
ELEMENT_SET_NO = 999
REV_AT_EPOCH   = 48912
BSTAR          = .33294804E-3
MEAN_MOTION_DOT = .1672E-4
MEAN_MOTION_DDOT = 0

CCSDS_OMM_VERS = 2.0
CREATION_DATE  = 
ORIGINATOR     = 

OBJECT_NAME    = SL-8 R/B
OBJECT_ID      = 1992-008B
CENTER_NAME    = EARTH
REF_FRAME      = TEME
TIME_SYSTEM    = UTC
MEAN_ELEMENT_THEORY = SGP/SGP4

EPOCH          = 2026-01-06T08:12:27.237888
MEAN_MOTION    = 13.75964841
ECCENTRICITY   = .00337669
INCLINATION    = 82.9285
RA_OF_ASC_NODE = 314.1482
ARG_OF_PERICENTER = 310.5208
MEAN_ANOMALY   = 167.1998

EPHEMERIS_TYPE = 0
CLASSIFICATION_TYPE = U
NORAD_CAT_ID   = 21876
ELEMENT_SET_NO = 999
REV_AT_EPOCH   = 70084
BSTAR          = .11275383E-3
MEAN_MOTION_DOT = .125E-5
MEAN_MOTION_DDOT = 0

CCSDS_OMM_VERS = 2.0
CREATION_DATE  = 
ORIGINATOR     = 

OBJECT_NAME    = SL-8 R/B
OBJECT_ID      = 1992-020B
CENTER_NAME    = EARTH
REF_FRAME      = TEME
TIME_SYSTEM    = UTC
MEAN_ELEMENT_THEORY = SGP/SGP4

EPOCH          = 2026-01-06T07:18:04.351392
MEAN_MOTION    = 13.75534842
ECCENTRICITY   = .00301279
INCLINATION    = 82.9292
RA_OF_ASC_NODE = 200.0757
ARG_OF_PERICENTER = 111.1412
MEAN_ANOMALY   = 61.4053

EPHEMERIS_TYPE = 0
CLASSIFICATION_TYPE = U
NORAD_CAT_ID   = 21938
ELEMENT_SET_NO = 999
REV_AT_EPOCH   = 69255
BSTAR          = .14259003E-3
MEAN_MOTION_DOT = .153E-5
MEAN_MOTION_DDOT = 0

CCSDS_OMM_VERS = 2.0
CREATION_DATE  = 
ORIGINATOR     = 

OBJECT_NAME    = USA 81
OBJECT_ID      = 1992-023A
CENTER_NAME    = EARTH
REF_FRAME      = TEME
TIME_SYSTEM    = UTC
MEAN_ELEMENT_THEORY = SGP/SGP4

EPOCH          = 2026-01-06T04:55:47.429184
MEAN_MOTION    = 14.32338784
ECCENTRICITY   = .0001257
INCLINATION    = 85.0092
RA_OF_ASC_NODE = 167.4663
ARG_OF_PERICENTER = 113.3994
MEAN_ANOMALY   = 246.7331

EPHEMERIS_TYPE = 0
CLASSIFICATION_TYPE = U
NORAD_CAT_ID   = 21949
ELEMENT_SET_NO = 999
REV_AT_EPOCH   = 8584
BSTAR          = .93332748E-4
MEAN_MOTION_DOT = .272E-5
MEAN_MOTION_DDOT = 0

CCSDS_OMM_VERS = 2.0
CREATION_DATE  = 
ORIGINATOR     = 

OBJECT_NAME    = COSMOS 2219
OBJECT_ID      = 1992-076A
CENTER_NAME    = EARTH
REF_FRAME      = TEME
TIME_SYSTEM    = UTC
MEAN_ELEMENT_THEORY = SGP/SGP4

EPOCH          = 2026-01-06T08:12:13.536576
MEAN_MOTION    = 14.14078667
ECCENTRICITY   = .00202051
INCLINATION    = 71.0608
RA_OF_ASC_NODE = 148.4043
ARG_OF_PERICENTER = 292.8776
MEAN_ANOMALY   = 67.0214

EPHEMERIS_TYPE = 0
CLASSIFICATION_TYPE = U
NORAD_CAT_ID   = 22219
ELEMENT_SET_NO = 999
REV_AT_EPOCH   = 70956
BSTAR          = .15296234E-3
MEAN_MOTION_DOT = .244E-5
MEAN_MOTION_DDOT = 0

CCSDS_OMM_VERS = 2.0
CREATION_DATE  = 
ORIGINATOR     = 

OBJECT_NAME    = SL-16 R/B
OBJECT_ID      = 1992-076B
CENTER_NAME    = EARTH
REF_FRAME      = TEME
TIME_SYSTEM    = UTC
MEAN_ELEMENT_THEORY = SGP/SGP4

EPOCH          = 2026-01-06T07:05:45.111264
MEAN_MOTION    = 14.16845528
ECCENTRICITY   = .00135801
INCLINATION    = 71.0012
RA_OF_ASC_NODE = 319.8046
ARG_OF_PERICENTER = 200.3399
MEAN_ANOMALY   = 269.2702

EPHEMERIS_TYPE = 0
CLASSIFICATION_TYPE = U
NORAD_CAT_ID   = 22220
ELEMENT_SET_NO = 999
REV_AT_EPOCH   = 71299
BSTAR          = .49272101E-4
MEAN_MOTION_DOT = .51E-6
MEAN_MOTION_DDOT = 0

CCSDS_OMM_VERS = 2.0
CREATION_DATE  = 
ORIGINATOR     = 

OBJECT_NAME    = COSMOS 2221
OBJECT_ID      = 1992-080A
CENTER_NAME    = EARTH
REF_FRAME      = TEME
TIME_SYSTEM    = UTC
MEAN_ELEMENT_THEORY = SGP/SGP4

EPOCH          = 2026-01-06T07:13:59.337408
MEAN_MOTION    = 14.95889110
ECCENTRICITY   = .00158534
INCLINATION    = 82.5053
RA_OF_ASC_NODE = 338.8131
ARG_OF_PERICENTER = 47.0834
MEAN_ANOMALY   = 313.1715

EPHEMERIS_TYPE = 0
CLASSIFICATION_TYPE = U
NORAD_CAT_ID   = 22236
ELEMENT_SET_NO = 999
REV_AT_EPOCH   = 77146
BSTAR          = .22057751E-3
MEAN_MOTION_DOT = .2498E-4
MEAN_MOTION_DDOT = 0

CCSDS_OMM_VERS = 2.0
CREATION_DATE  = 
ORIGINATOR     = 

OBJECT_NAME    = SL-16 R/B
OBJECT_ID      = 1992-093B
CENTER_NAME    = EARTH
REF_FRAME      = TEME
TIME_SYSTEM    = UTC
MEAN_ELEMENT_THEORY = SGP/SGP4

EPOCH          = 2026-01-06T08:06:03.883680
MEAN_MOTION    = 14.15433768
ECCENTRICITY   = .00032004
INCLINATION    = 71.0211
RA_OF_ASC_NODE = 135.1605
ARG_OF_PERICENTER = 8.5095
MEAN_ANOMALY   = 351.6082

EPHEMERIS_TYPE = 0
CLASSIFICATION_TYPE = U
NORAD_CAT_ID   = 22285
ELEMENT_SET_NO = 999
REV_AT_EPOCH   = 70433
BSTAR          = -.14037882E-4
MEAN_MOTION_DOT = -.75E-6
MEAN_MOTION_DDOT = 0

CCSDS_OMM_VERS = 2.0
CREATION_DATE  = 
ORIGINATOR     = 

OBJECT_NAME    = COSMOS 2228
OBJECT_ID      = 1992-094A
CENTER_NAME    = EARTH
REF_FRAME      = TEME
TIME_SYSTEM    = UTC
MEAN_ELEMENT_THEORY = SGP/SGP4

EPOCH          = 2026-01-06T06:59:56.580576
MEAN_MOTION    = 14.96873372
ECCENTRICITY   = .00187595
INCLINATION    = 82.5197
RA_OF_ASC_NODE = 297.0428
ARG_OF_PERICENTER = 147.0609
MEAN_ANOMALY   = 213.1786

EPHEMERIS_TYPE = 0
CLASSIFICATION_TYPE = U
NORAD_CAT_ID   = 22286
ELEMENT_SET_NO = 999
REV_AT_EPOCH   = 76672
BSTAR          = .25454947E-3
MEAN_MOTION_DOT = .2955E-4
MEAN_MOTION_DDOT = 0

